[Satellite]
VERSION=1.1
NAME=SPACEWAY 3
NICKNAME=SPACEWAY 3
TLE1=1 32018U 07036A   15055.48481162 -.00000177  00000-0  10000-3 0  9990
TLE2=2 32018   0.0007 222.3988 0000382 342.0294  29.1428  1.00270478 27705
